{
    "links": {
        "self": "http://www.neowsapp.com/rest/v1/neo/3837876?api_key=iIulBulltgU6a56xZRHN4H3l9WmuAYTsLGpBGhQ2"
    },
    "id": "3837876",
    "neo_reference_id": "3837876",
    "name": "(2019 AG12)",
    "designation": "2019 AG12",
    "nasa_jpl_url": "http://ssd.jpl.nasa.gov/sbdb.cgi?sstr=3837876",
    "absolute_magnitude_h": 23.8,
    "estimated_diameter": {
        "kilometers": {
            "estimated_diameter_min": 0.046190746,
            "estimated_diameter_max": 0.1032856481
        },
        "meters": {
            "estimated_diameter_min": 46.1907460282,
            "estimated_diameter_max": 103.2856480504
        },
        "miles": {
            "estimated_diameter_min": 0.0287015901,
            "estimated_diameter_max": 0.0641787064
        },
        "feet": {
            "estimated_diameter_min": 151.544447199,
            "estimated_diameter_max": 338.8636855496
        }
    },
    "is_potentially_hazardous_asteroid": false,
    "close_approach_data": [
        {
            "close_approach_date": "2018-12-16",
            "close_approach_date_full": "2018-Dec-16 19:08",
            "epoch_date_close_approach": 1544987280000,
            "relative_velocity": {
                "kilometers_per_second": "11.7350857326",
                "kilometers_per_hour": "42246.308637446",
                "miles_per_hour": "26250.2132753064"
            },
            "miss_distance": {
                "astronomical": "0.0906905136",
                "lunar": "35.2786097904",
                "kilometers": "13567107.663766032",
                "miles": "8430209.7882419616"
            },
            "orbiting_body": "Earth"
        }
    ],
    "orbital_data": {
        "orbit_id": "3",
        "orbit_determination_date": "2019-01-28 07:45:38",
        "first_observation_date": "2019-01-11",
        "last_observation_date": "2019-01-27",
        "data_arc_in_days": 16,
        "observations_used": 17,
        "orbit_uncertainty": "7",
        "minimum_orbit_intersection": ".0099672",
        "jupiter_tisserand_invariant": "3.085",
        "epoch_osculation": "2459000.5",
        "eccentricity": ".6666206825689022",
        "semi_major_axis": "2.545896331338976",
        "inclination": "3.209328278291981",
        "ascending_node_longitude": "91.00815176923317",
        "orbital_period": "1483.745790166702",
        "perihelion_distance": ".8487491811921238",
        "perihelion_argument": "321.7020368341033",
        "aphelion_distance": "4.243043481485828",
        "perihelion_time": "2458446.245475450099",
        "mean_anomaly": "134.4783116894616",
        "mean_motion": ".2426291635574267",
        "equinox": "J2000",
        "orbit_class": {
            "orbit_class_type": "APO",
            "orbit_class_description": "Near-Earth asteroid orbits which cross the Earth’s orbit similar to that of 1862 Apollo",
            "orbit_class_range": "a (semi-major axis) > 1.0 AU; q (perihelion) < 1.017 AU"
        }
    },
    "is_sentry_object": false
}